[
    {
        "Altitude(m)": 617719.7926005407,
        "Argument of Periapsis(deg)": 0.0,
        "Eccentricity": 0.0,
        "Inclination(deg)": 60.0,
        "Latitude(deg)": -41.10269873656128,
        "Longitude(deg)": -59.90533131020609,
        "Mean Anomaly(deg)": -130.90909999999997,
        "RAAN(deg)": 190.0,
        "Satellite Name": "Test1 850",
        "Satellite Number": 850,
        "Semi-Major Axis(m)": 6980739.136638005,
        "Time(s)": 0
    },
    {
        "Altitude(m)": 617911.328468945,
        "Argument of Periapsis(deg)": 0.00010418945913296404,
        "Eccentricity": 0.0,
        "Inclination(deg)": 60.0,
        "Latitude(deg)": -41.56589048411486,
        "Longitude(deg)": -59.400923951974626,
        "Mean Anomaly(deg)": -130.28899385453812,
        "RAAN(deg)": 189.99957995086027,
        "Satellite Name": "Test1 850",
        "Satellite Number": 850,
        "Semi-Major Axis(m)": 6980739.136638005,
        "Time(s)": 10
    }
]